{
    "links": {
        "self": "http://www.neowsapp.com/rest/v1/neo/54055083?api_key=iIulBulltgU6a56xZRHN4H3l9WmuAYTsLGpBGhQ2"
    },
    "id": "54055083",
    "neo_reference_id": "54055083",
    "name": "(2020 TJ2)",
    "designation": "2020 TJ2",
    "nasa_jpl_url": "http://ssd.jpl.nasa.gov/sbdb.cgi?sstr=54055083",
    "absolute_magnitude_h": 25.422,
    "estimated_diameter": {
        "kilometers": {
            "estimated_diameter_min": 0.0218854246,
            "estimated_diameter_max": 0.0489372971
        },
        "meters": {
            "estimated_diameter_min": 21.8854245905,
            "estimated_diameter_max": 48.9372971008
        },
        "miles": {
            "estimated_diameter_min": 0.0135989682,
            "estimated_diameter_max": 0.0304082172
        },
        "feet": {
            "estimated_diameter_min": 71.8025764134,
            "estimated_diameter_max": 160.5554418201
        }
    },
    "is_potentially_hazardous_asteroid": false,
    "close_approach_data": [
        {
            "close_approach_date": "2020-10-19",
            "close_approach_date_full": "2020-Oct-19 21:29",
            "epoch_date_close_approach": 1603142940000,
            "relative_velocity": {
                "kilometers_per_second": "14.6134237279",
                "kilometers_per_hour": "52608.3254206153",
                "miles_per_hour": "32688.7675370484"
            },
            "miss_distance": {
                "astronomical": "0.0135243109",
                "lunar": "5.2609569401",
                "kilometers": "2023208.103857783",
                "miles": "1257163.2203040854"
            },
            "orbiting_body": "Earth"
        }
    ],
    "orbital_data": {
        "orbit_id": "5",
        "orbit_determination_date": "2020-10-19 08:20:35",
        "first_observation_date": "2020-10-07",
        "last_observation_date": "2020-10-17",
        "data_arc_in_days": 10,
        "observations_used": 31,
        "orbit_uncertainty": "8",
        "minimum_orbit_intersection": ".0135054",
        "jupiter_tisserand_invariant": "3.471",
        "epoch_osculation": "2459132.5",
        "eccentricity": ".6185299622635653",
        "semi_major_axis": "2.100813806587047",
        "inclination": "5.54519865663927",
        "ascending_node_longitude": "198.8995084014055",
        "orbital_period": "1112.192011314958",
        "perihelion_distance": ".8013975220759838",
        "perihelion_argument": "249.0062769814924",
        "aphelion_distance": "3.40023009109811",
        "perihelion_time": "2459183.259223868406",
        "mean_anomaly": "343.5699947430647",
        "mean_motion": ".3236851158230921",
        "equinox": "J2000",
        "orbit_class": {
            "orbit_class_type": "APO",
            "orbit_class_description": "Near-Earth asteroid orbits which cross the Earth’s orbit similar to that of 1862 Apollo",
            "orbit_class_range": "a (semi-major axis) > 1.0 AU; q (perihelion) < 1.017 AU"
        }
    },
    "is_sentry_object": false
}